[{"id":1,"nameTH":"คลองท่อม","provinceId":1},{"id":2,"nameTH":"ปลายพระยา","provinceId":1},{"id":3,"nameTH":"ลำทับ","provinceId":1},{"id":4,"nameTH":"อ่าวลึก","provinceId":1},{"id":5,"nameTH":"เกาะลันตา","provinceId":1},{"id":6,"nameTH":"เขาพนม","provinceId":1},{"id":7,"nameTH":"เมือง","provinceId":1},{"id":8,"nameTH":"เหนือคลอง","provinceId":1},{"id":9,"nameTH":"คลองสาน","provinceId":2},{"id":10,"nameTH":"คลองสามวา","provinceId":2},{"id":11,"nameTH":"คลองเตย","provinceId":2},{"id":12,"nameTH":"คันนายาว","provinceId":2},{"id":13,"nameTH":"จตุจักร","provinceId":2},{"id":14,"nameTH":"จอมทอง","provinceId":2},{"id":15,"nameTH":"ดอนเมือง","provinceId":2},{"id":16,"nameTH":"ดินแดง","provinceId":2},{"id":17,"nameTH":"ดุสิต","provinceId":2},{"id":18,"nameTH":"ตลิ่งชัน","provinceId":2},{"id":19,"nameTH":"ทวีวัฒนา","provinceId":2},{"id":20,"nameTH":"ทุ่งครุ","provinceId":2},{"id":21,"nameTH":"ธนบุรี","provinceId":2},{"id":22,"nameTH":"บางกอกน้อย","provinceId":2},{"id":23,"nameTH":"บางกอกใหญ่","provinceId":2},{"id":24,"nameTH":"บางกะปิ","provinceId":2},{"id":25,"nameTH":"บางขุนเทียน","provinceId":2},{"id":26,"nameTH":"บางคอแหลม","provinceId":2},{"id":27,"nameTH":"บางซื่อ","provinceId":2},{"id":28,"nameTH":"บางนา","provinceId":2},{"id":29,"nameTH":"บางบอน","provinceId":2},{"id":30,"nameTH":"บางพลัด","provinceId":2},{"id":31,"nameTH":"บางรัก","provinceId":2},{"id":32,"nameTH":"บางเขน","provinceId":2},{"id":33,"nameTH":"บางแค","provinceId":2},{"id":34,"nameTH":"บึงกุ่ม","provinceId":2},{"id":35,"nameTH":"ปทุมวัน","provinceId":2},{"id":36,"nameTH":"ประเวศ","provinceId":2},{"id":37,"nameTH":"ป้อมปราบศัตรูพ่าย","provinceId":2},{"id":38,"nameTH":"พญาไท","provinceId":2},{"id":39,"nameTH":"พระนคร","provinceId":2},{"id":40,"nameTH":"พระโขนง","provinceId":2},{"id":41,"nameTH":"ภาษีเจริญ","provinceId":2},{"id":42,"nameTH":"มีนบุรี","provinceId":2},{"id":43,"nameTH":"ยานนาวา","provinceId":2},{"id":44,"nameTH":"ราชเทวี","provinceId":2},{"id":45,"nameTH":"ราษฎร์บูรณะ","provinceId":2},{"id":46,"nameTH":"ลาดกระบัง","provinceId":2},{"id":47,"nameTH":"ลาดพร้าว","provinceId":2},{"id":48,"nameTH":"วังทองหลาง","provinceId":2},{"id":49,"nameTH":"วัฒนา","provinceId":2},{"id":50,"nameTH":"สวนหลวง","provinceId":2},{"id":51,"nameTH":"สะพานสูง","provinceId":2},{"id":52,"nameTH":"สัมพันธวงศ์","provinceId":2},{"id":53,"nameTH":"สาทร","provinceId":2},{"id":54,"nameTH":"สายไหม","provinceId":2},{"id":55,"nameTH":"หนองจอก","provinceId":2},{"id":56,"nameTH":"หนองแขม","provinceId":2},{"id":57,"nameTH":"หลักสี่","provinceId":2},{"id":58,"nameTH":"ห้วยขวาง","provinceId":2},{"id":59,"nameTH":"ด่านมะขามเตี้ย","provinceId":3},{"id":60,"nameTH":"ทองผาภูมิ","provinceId":3},{"id":61,"nameTH":"ท่ามะกา","provinceId":3},{"id":62,"nameTH":"ท่าม่วง","provinceId":3},{"id":63,"nameTH":"บ่อพลอย","provinceId":3},{"id":64,"nameTH":"พนมทวน","provinceId":3},{"id":65,"nameTH":"ศรีสวัสดิ์","provinceId":3},{"id":66,"nameTH":"สังขละบุรี","provinceId":3},{"id":67,"nameTH":"หนองปรือ","provinceId":3},{"id":68,"nameTH":"ห้วยกระเจา","provinceId":3},{"id":69,"nameTH":"เมือง","provinceId":3},{"id":70,"nameTH":"เลาขวัญ","provinceId":3},{"id":71,"nameTH":"ไทรโยค","provinceId":3},{"id":72,"nameTH":"กมลาไสย","provinceId":4},{"id":73,"nameTH":"กุฉินารายณ์","provinceId":4},{"id":74,"nameTH":"คำม่วง","provinceId":4},{"id":75,"nameTH":"ฆ้องชัย","provinceId":4},{"id":76,"nameTH":"ดอนจาน","provinceId":4},{"id":77,"nameTH":"ท่าคันโท","provinceId":4},{"id":78,"nameTH":"นาคู","provinceId":4},{"id":79,"nameTH":"นามน","provinceId":4},{"id":80,"nameTH":"ยางตลาด","provinceId":4},{"id":81,"nameTH":"ร่องคำ","provinceId":4},{"id":82,"nameTH":"สมเด็จ","provinceId":4},{"id":83,"nameTH":"สหัสขันธ์","provinceId":4},{"id":84,"nameTH":"สามชัย","provinceId":4},{"id":85,"nameTH":"หนองกุงศรี","provinceId":4},{"id":86,"nameTH":"ห้วยผึ้ง","provinceId":4},{"id":87,"nameTH":"ห้วยเม็ก","provinceId":4},{"id":88,"nameTH":"เขาวง","provinceId":4},{"id":89,"nameTH":"เมือง","provinceId":4},{"id":90,"nameTH":"ขาณุวรลักษบุรี","provinceId":5},{"id":91,"nameTH":"คลองขลุง","provinceId":5},{"id":92,"nameTH":"คลองลาน","provinceId":5},{"id":93,"nameTH":"ทรายทองวัฒนา","provinceId":5},{"id":94,"nameTH":"บึงสามัคคี","provinceId":5},{"id":95,"nameTH":"ปางศิลาทอง","provinceId":5},{"id":96,"nameTH":"พรานกระต่าย","provinceId":5},{"id":97,"nameTH":"ลานกระบือ","provinceId":5},{"id":98,"nameTH":"เมือง","provinceId":5},{"id":99,"nameTH":"โกสัมพีนคร","provinceId":5},{"id":100,"nameTH":"ไทรงาม","provinceId":5},{"id":101,"nameTH":"กระนวน","provinceId":6},{"id":102,"nameTH":"ชนบท","provinceId":6},{"id":103,"nameTH":"ชุมแพ","provinceId":6},{"id":104,"nameTH":"ซำสูง","provinceId":6},{"id":105,"nameTH":"น้ำพอง","provinceId":6},{"id":106,"nameTH":"บ้านฝาง","provinceId":6},{"id":107,"nameTH":"บ้านแฮด","provinceId":6},{"id":108,"nameTH":"บ้านไผ่","provinceId":6},{"id":109,"nameTH":"พระยืน","provinceId":6},{"id":110,"nameTH":"พล","provinceId":6},{"id":111,"nameTH":"ภูผาม่าน","provinceId":6},{"id":112,"nameTH":"ภูเวียง","provinceId":6},{"id":113,"nameTH":"มัญจาคีรี","provinceId":6},{"id":114,"nameTH":"สีชมพู","provinceId":6},{"id":115,"nameTH":"หนองนาคำ","provinceId":6},{"id":116,"nameTH":"หนองสองห้อง","provinceId":6},{"id":117,"nameTH":"หนองเรือ","provinceId":6},{"id":118,"nameTH":"อุบลรัตน์","provinceId":6},{"id":119,"nameTH":"เขาสวนกวาง","provinceId":6},{"id":120,"nameTH":"เปือยน้อย","provinceId":6},{"id":121,"nameTH":"เมือง","provinceId":6},{"id":122,"nameTH":"เวียงเก่า","provinceId":6},{"id":123,"nameTH":"แวงน้อย","provinceId":6},{"id":124,"nameTH":"แวงใหญ่","provinceId":6},{"id":125,"nameTH":"โคกโพธิ์ไชย","provinceId":6},{"id":126,"nameTH":"โนนศิลา","provinceId":6},{"id":127,"nameTH":"ขลุง","provinceId":7},{"id":128,"nameTH":"ท่าใหม่","provinceId":7},{"id":129,"nameTH":"นายายอาม","provinceId":7},{"id":130,"nameTH":"มะขาม","provinceId":7},{"id":131,"nameTH":"สอยดาว","provinceId":7},{"id":132,"nameTH":"เขาคิชฌกูฏ","provinceId":7},{"id":133,"nameTH":"เมือง","provinceId":7},{"id":134,"nameTH":"แก่งหางแมว","provinceId":7},{"id":135,"nameTH":"แหลมสิงห์","provinceId":7},{"id":136,"nameTH":"โป่งน้ำร้อน","provinceId":7},{"id":137,"nameTH":"คลองเขื่อน","provinceId":8},{"id":138,"nameTH":"ท่าตะเกียบ","provinceId":8},{"id":139,"nameTH":"บางคล้า","provinceId":8},{"id":140,"nameTH":"บางน้ำเปรี้ยว","provinceId":8},{"id":141,"nameTH":"บางปะกง","provinceId":8},{"id":142,"nameTH":"บ้านโพธิ์","provinceId":8},{"id":143,"nameTH":"พนมสารคาม","provinceId":8},{"id":144,"nameTH":"ราชสาส์น","provinceId":8},{"id":145,"nameTH":"สนามชัยเขต","provinceId":8},{"id":146,"nameTH":"เมือง","provinceId":8},{"id":147,"nameTH":"แปลงยาว","provinceId":8},{"id":148,"nameTH":"บางละมุง","provinceId":9},{"id":149,"nameTH":"บ่อทอง","provinceId":9},{"id":150,"nameTH":"บ้านบึง","provinceId":9},{"id":151,"nameTH":"พนัสนิคม","provinceId":9},{"id":152,"nameTH":"พานทอง","provinceId":9},{"id":153,"nameTH":"ศรีราชา","provinceId":9},{"id":154,"nameTH":"สัตหีบ","provinceId":9},{"id":155,"nameTH":"หนองใหญ่","provinceId":9},{"id":156,"nameTH":"เกาะจันทร์","provinceId":9},{"id":157,"nameTH":"เกาะสีชัง","provinceId":9},{"id":158,"nameTH":"เมือง","provinceId":9},{"id":159,"nameTH":"มโนรมย์","provinceId":10},{"id":160,"nameTH":"วัดสิงห์","provinceId":10},{"id":161,"nameTH":"สรรคบุรี","provinceId":10},{"id":162,"nameTH":"สรรพยา","provinceId":10},{"id":163,"nameTH":"หนองมะโมง","provinceId":10},{"id":164,"nameTH":"หันคา","provinceId":10},{"id":165,"nameTH":"เนินขาม","provinceId":10},{"id":166,"nameTH":"เมือง","provinceId":10},{"id":167,"nameTH":"คอนสวรรค์","provinceId":11},{"id":168,"nameTH":"คอนสาร","provinceId":11},{"id":169,"nameTH":"จัตุรัส","provinceId":11},{"id":170,"nameTH":"ซับใหญ่","provinceId":11},{"id":171,"nameTH":"บำเหน็จณรงค์","provinceId":11},{"id":172,"nameTH":"บ้านเขว้า","provinceId":11},{"id":173,"nameTH":"บ้านแท่น","provinceId":11},{"id":174,"nameTH":"ภักดีชุมพล","provinceId":11},{"id":175,"nameTH":"ภูเขียว","provinceId":11},{"id":176,"nameTH":"หนองบัวระเหว","provinceId":11},{"id":177,"nameTH":"หนองบัวแดง","provinceId":11},{"id":178,"nameTH":"เกษตรสมบูรณ์","provinceId":11},{"id":179,"nameTH":"เทพสถิต","provinceId":11},{"id":180,"nameTH":"เนินสง่า","provinceId":11},{"id":181,"nameTH":"เมือง","provinceId":11},{"id":182,"nameTH":"แก้งคร้อ","provinceId":11},{"id":183,"nameTH":"ทุ่งตะโก","provinceId":12},{"id":184,"nameTH":"ท่าแซะ","provinceId":12},{"id":185,"nameTH":"ปะทิว","provinceId":12},{"id":186,"nameTH":"พะโต๊ะ","provinceId":12},{"id":187,"nameTH":"ละแม","provinceId":12},{"id":188,"nameTH":"สวี","provinceId":12},{"id":189,"nameTH":"หลังสวน","provinceId":12},{"id":190,"nameTH":"เมือง","provinceId":12},{"id":191,"nameTH":"กันตัง","provinceId":13},{"id":192,"nameTH":"นาโยง","provinceId":13},{"id":193,"nameTH":"ปะเหลียน","provinceId":13},{"id":194,"nameTH":"ย่านตาขาว","provinceId":13},{"id":195,"nameTH":"รัษฎา","provinceId":13},{"id":196,"nameTH":"วังวิเศษ","provinceId":13},{"id":197,"nameTH":"สิเกา","provinceId":13},{"id":198,"nameTH":"หาดสำราญ","provinceId":13},{"id":199,"nameTH":"ห้วยยอด","provinceId":13},{"id":200,"nameTH":"เมือง","provinceId":13},{"id":201,"nameTH":"คลองใหญ่","provinceId":14},{"id":202,"nameTH":"บ่อไร่","provinceId":14},{"id":203,"nameTH":"เกาะกูด","provinceId":14},{"id":204,"nameTH":"เกาะช้าง","provinceId":14},{"id":205,"nameTH":"เขาสมิง","provinceId":14},{"id":206,"nameTH":"เมือง","provinceId":14},{"id":207,"nameTH":"แหลมงอบ","provinceId":14},{"id":208,"nameTH":"ท่าสองยาง","provinceId":15},{"id":209,"nameTH":"บ้านตาก","provinceId":15},{"id":210,"nameTH":"พบพระ","provinceId":15},{"id":211,"nameTH":"วังเจ้า","provinceId":15},{"id":212,"nameTH":"สามเงา","provinceId":15},{"id":213,"nameTH":"อุ้มผาง","provinceId":15},{"id":214,"nameTH":"เมือง","provinceId":15},{"id":215,"nameTH":"แม่ระมาด","provinceId":15},{"id":216,"nameTH":"แม่สอด","provinceId":15},{"id":217,"nameTH":"บ้านนา","provinceId":16},{"id":218,"nameTH":"ปากพลี","provinceId":16},{"id":219,"nameTH":"องครักษ์","provinceId":16},{"id":220,"nameTH":"เมือง","provinceId":16},{"id":221,"nameTH":"กำแพงแสน","provinceId":17},{"id":222,"nameTH":"ดอนตูม","provinceId":17},{"id":223,"nameTH":"นครชัยศรี","provinceId":17},{"id":224,"nameTH":"บางเลน","provinceId":17},{"id":225,"nameTH":"พุทธมณฑล","provinceId":17},{"id":226,"nameTH":"สามพราน","provinceId":17},{"id":227,"nameTH":"เมือง","provinceId":17},{"id":228,"nameTH":"ท่าอุเทน","provinceId":18},{"id":229,"nameTH":"ธาตุพนม","provinceId":18},{"id":230,"nameTH":"นาทม","provinceId":18},{"id":231,"nameTH":"นาหว้า","provinceId":18},{"id":232,"nameTH":"นาแก","provinceId":18},{"id":233,"nameTH":"บ้านแพง","provinceId":18},{"id":234,"nameTH":"ปลาปาก","provinceId":18},{"id":235,"nameTH":"วังยาง","provinceId":18},{"id":236,"nameTH":"ศรีสงคราม","provinceId":18},{"id":237,"nameTH":"เมือง","provinceId":18},{"id":238,"nameTH":"เรณูนคร","provinceId":18},{"id":239,"nameTH":"โพนสวรรค์","provinceId":18},{"id":240,"nameTH":"ขามทะเลสอ","provinceId":19},{"id":241,"nameTH":"ขามสะแกแสง","provinceId":19},{"id":242,"nameTH":"คง","provinceId":19},{"id":243,"nameTH":"ครบุรี","provinceId":19},{"id":244,"nameTH":"จักราช","provinceId":19},{"id":245,"nameTH":"ชุมพวง","provinceId":19},{"id":246,"nameTH":"ด่านขุนทด","provinceId":19},{"id":247,"nameTH":"บัวลาย","provinceId":19},{"id":248,"nameTH":"บัวใหญ่","provinceId":19},{"id":249,"nameTH":"บ้านเหลื่อม","provinceId":19},{"id":250,"nameTH":"ประทาย","provinceId":19},{"id":251,"nameTH":"ปักธงชัย","provinceId":19},{"id":252,"nameTH":"ปากช่อง","provinceId":19},{"id":253,"nameTH":"พระทองคำ","provinceId":19},{"id":254,"nameTH":"พิมาย","provinceId":19},{"id":255,"nameTH":"ลำทะเมนชัย","provinceId":19},{"id":256,"nameTH":"วังน้ำเขียว","provinceId":19},{"id":257,"nameTH":"สีคิ้ว","provinceId":19},{"id":258,"nameTH":"สีดา","provinceId":19},{"id":259,"nameTH":"สูงเนิน","provinceId":19},{"id":260,"nameTH":"หนองบุญมาก","provinceId":19},{"id":261,"nameTH":"ห้วยแถลง","provinceId":19},{"id":262,"nameTH":"เฉลิมพระเกียรติ","provinceId":19},{"id":263,"nameTH":"เทพารักษ์","provinceId":19},{"id":264,"nameTH":"เมือง","provinceId":19},{"id":265,"nameTH":"เมืองยาง","provinceId":19},{"id":266,"nameTH":"เสิงสาง","provinceId":19},{"id":267,"nameTH":"แก้งสนามนาง","provinceId":19},{"id":268,"nameTH":"โชคชัย","provinceId":19},{"id":269,"nameTH":"โนนสูง","provinceId":19},{"id":270,"nameTH":"โนนแดง","provinceId":19},{"id":271,"nameTH":"โนนไทย","provinceId":19},{"id":272,"nameTH":"ขนอม","provinceId":20},{"id":273,"nameTH":"จุฬาภรณ์","provinceId":20},{"id":274,"nameTH":"ฉวาง","provinceId":20},{"id":275,"nameTH":"ชะอวด","provinceId":20},{"id":276,"nameTH":"ช้างกลาง","provinceId":20},{"id":277,"nameTH":"ถ้ำพรรณรา","provinceId":20},{"id":278,"nameTH":"ทุ่งสง","provinceId":20},{"id":279,"nameTH":"ทุ่งใหญ่","provinceId":20},{"id":280,"nameTH":"ท่าศาลา","provinceId":20},{"id":281,"nameTH":"นบพิตำ","provinceId":20},{"id":282,"nameTH":"นาบอน","provinceId":20},{"id":283,"nameTH":"บางขัน","provinceId":20},{"id":284,"nameTH":"ปากพนัง","provinceId":20},{"id":285,"nameTH":"พรหมคีรี","provinceId":20},{"id":286,"nameTH":"พระพรหม","provinceId":20},{"id":287,"nameTH":"พิปูน","provinceId":20},{"id":288,"nameTH":"ร่อนพิบูลย์","provinceId":20},{"id":289,"nameTH":"ลานสกา","provinceId":20},{"id":290,"nameTH":"สิชล","provinceId":20},{"id":291,"nameTH":"หัวไทร","provinceId":20},{"id":292,"nameTH":"เฉลิมพระเกียรติ","provinceId":20},{"id":293,"nameTH":"เชียรใหญ่","provinceId":20},{"id":294,"nameTH":"เมือง","provinceId":20},{"id":295,"nameTH":"ชุมตาบง","provinceId":21},{"id":296,"nameTH":"ชุมแสง","provinceId":21},{"id":297,"nameTH":"ตากฟ้า","provinceId":21},{"id":298,"nameTH":"ตาคลี","provinceId":21},{"id":299,"nameTH":"ท่าตะโก","provinceId":21},{"id":300,"nameTH":"บรรพตพิสัย","provinceId":21},{"id":301,"nameTH":"พยุหะคีรี","provinceId":21},{"id":302,"nameTH":"ลาดยาว","provinceId":21},{"id":303,"nameTH":"หนองบัว","provinceId":21},{"id":304,"nameTH":"เก้าเลี้ยว","provinceId":21},{"id":305,"nameTH":"เมือง","provinceId":21},{"id":306,"nameTH":"แม่วงก์","provinceId":21},{"id":307,"nameTH":"แม่เปิน","provinceId":21},{"id":308,"nameTH":"โกรกพระ","provinceId":21},{"id":309,"nameTH":"ไพศาลี","provinceId":21},{"id":310,"nameTH":"บางกรวย","provinceId":22},{"id":311,"nameTH":"บางบัวทอง","provinceId":22},{"id":312,"nameTH":"บางใหญ่","provinceId":22},{"id":313,"nameTH":"ปากเกร็ด","provinceId":22},{"id":314,"nameTH":"เมือง","provinceId":22},{"id":315,"nameTH":"ไทรน้อย","provinceId":22},{"id":316,"nameTH":"จะแนะ","provinceId":23},{"id":317,"nameTH":"ตากใบ","provinceId":23},{"id":318,"nameTH":"บาเจาะ","provinceId":23},{"id":319,"nameTH":"ยี่งอ","provinceId":23},{"id":320,"nameTH":"ระแงะ","provinceId":23},{"id":321,"nameTH":"รือเสาะ","provinceId":23},{"id":322,"nameTH":"ศรีสาคร","provinceId":23},{"id":323,"nameTH":"สุคิริน","provinceId":23},{"id":324,"nameTH":"สุไหงปาดี","provinceId":23},{"id":325,"nameTH":"สุไหงโก-ลก","provinceId":23},{"id":326,"nameTH":"เจาะไอร้อง","provinceId":23},{"id":327,"nameTH":"เมือง","provinceId":23},{"id":328,"nameTH":"แว้ง","provinceId":23},{"id":329,"nameTH":"ทุ่งช้าง","provinceId":24},{"id":330,"nameTH":"ท่าวังผา","provinceId":24},{"id":331,"nameTH":"นาน้อย","provinceId":24},{"id":332,"nameTH":"นาหมื่น","provinceId":24},{"id":333,"nameTH":"บ่อเกลือ","provinceId":24},{"id":334,"nameTH":"บ้านหลวง","provinceId":24},{"id":335,"nameTH":"ปัว","provinceId":24},{"id":336,"nameTH":"ภูเพียง","provinceId":24},{"id":337,"nameTH":"สองแคว","provinceId":24},{"id":338,"nameTH":"สันติสุข","provinceId":24},{"id":339,"nameTH":"เฉลิมพระเกียรติ","provinceId":24},{"id":340,"nameTH":"เชียงกลาง","provinceId":24},{"id":341,"nameTH":"เมือง","provinceId":24},{"id":342,"nameTH":"เวียงสา","provinceId":24},{"id":343,"nameTH":"แม่จริม","provinceId":24},{"id":344,"nameTH":"บึงโขงหลง","provinceId":25},{"id":345,"nameTH":"บุ่งคล้า","provinceId":25},{"id":346,"nameTH":"ปากคาด","provinceId":25},{"id":347,"nameTH":"พรเจริญ","provinceId":25},{"id":348,"nameTH":"ศรีวิไล","provinceId":25},{"id":349,"nameTH":"เซกา","provinceId":25},{"id":350,"nameTH":"เมือง","provinceId":25},{"id":351,"nameTH":"โซ่พิสัย","provinceId":25},{"id":352,"nameTH":"กระสัง","provinceId":26},{"id":353,"nameTH":"คูเมือง","provinceId":26},{"id":354,"nameTH":"ชำนิ","provinceId":26},{"id":355,"nameTH":"นางรอง","provinceId":26},{"id":356,"nameTH":"นาโพธิ์","provinceId":26},{"id":357,"nameTH":"บ้านกรวด","provinceId":26},{"id":358,"nameTH":"บ้านด่าน","provinceId":26},{"id":359,"nameTH":"บ้านใหม่ไชยพจน์","provinceId":26},{"id":360,"nameTH":"ประโคนชัย","provinceId":26},{"id":361,"nameTH":"ปะคำ","provinceId":26},{"id":362,"nameTH":"พลับพลาชัย","provinceId":26},{"id":363,"nameTH":"พุทไธสง","provinceId":26},{"id":364,"nameTH":"ละหานทราย","provinceId":26},{"id":365,"nameTH":"ลำปลายมาศ","provinceId":26},{"id":366,"nameTH":"สตึก","provinceId":26},{"id":367,"nameTH":"หนองกี่","provinceId":26},{"id":368,"nameTH":"หนองหงส์","provinceId":26},{"id":369,"nameTH":"ห้วยราช","provinceId":26},{"id":370,"nameTH":"เฉลิมพระเกียรติ","provinceId":26},{"id":371,"nameTH":"เมือง","provinceId":26},{"id":372,"nameTH":"แคนดง","provinceId":26},{"id":373,"nameTH":"โนนดินแดง","provinceId":26},{"id":374,"nameTH":"โนนสุวรรณ","provinceId":26},{"id":375,"nameTH":"คลองหลวง","provinceId":27},{"id":376,"nameTH":"ธัญบุรี","provinceId":27},{"id":377,"nameTH":"ลาดหลุมแก้ว","provinceId":27},{"id":378,"nameTH":"ลำลูกกา","provinceId":27},{"id":379,"nameTH":"สามโคก","provinceId":27},{"id":380,"nameTH":"หนองเสือ","provinceId":27},{"id":381,"nameTH":"เมือง","provinceId":27},{"id":382,"nameTH":"กุยบุรี","provinceId":28},{"id":383,"nameTH":"ทับสะแก","provinceId":28},{"id":384,"nameTH":"บางสะพาน","provinceId":28},{"id":385,"nameTH":"บางสะพานน้อย","provinceId":28},{"id":386,"nameTH":"ปราณบุรี","provinceId":28},{"id":387,"nameTH":"สามร้อยยอด","provinceId":28},{"id":388,"nameTH":"หัวหิน","provinceId":28},{"id":389,"nameTH":"เมือง","provinceId":28},{"id":390,"nameTH":"กบินทร์บุรี","provinceId":29},{"id":391,"nameTH":"นาดี","provinceId":29},{"id":392,"nameTH":"บ้านสร้าง","provinceId":29},{"id":393,"nameTH":"ประจันตคาม","provinceId":29},{"id":394,"nameTH":"ศรีมหาโพธิ","provinceId":29},{"id":395,"nameTH":"ศรีมโหสถ","provinceId":29},{"id":396,"nameTH":"เมือง","provinceId":29},{"id":397,"nameTH":"กะพ้อ","provinceId":30},{"id":398,"nameTH":"ทุ่งยางแดง","provinceId":30},{"id":399,"nameTH":"ปะนาเระ","provinceId":30},{"id":400,"nameTH":"มายอ","provinceId":30},{"id":401,"nameTH":"ยะรัง","provinceId":30},{"id":402,"nameTH":"ยะหริ่ง","provinceId":30},{"id":403,"nameTH":"สายบุรี","provinceId":30},{"id":404,"nameTH":"หนองจิก","provinceId":30},{"id":405,"nameTH":"เมือง","provinceId":30},{"id":406,"nameTH":"แม่ลาน","provinceId":30},{"id":407,"nameTH":"โคกโพธิ์","provinceId":30},{"id":408,"nameTH":"ไม้แก่น","provinceId":30},{"id":409,"nameTH":"ท่าเรือ","provinceId":31},{"id":410,"nameTH":"นครหลวง","provinceId":31},{"id":411,"nameTH":"บางซ้าย","provinceId":31},{"id":412,"nameTH":"บางบาล","provinceId":31},{"id":413,"nameTH":"บางปะหัน","provinceId":31},{"id":414,"nameTH":"บางปะอิน","provinceId":31},{"id":415,"nameTH":"บางไทร","provinceId":31},{"id":416,"nameTH":"บ้านแพรก","provinceId":31},{"id":417,"nameTH":"ผักไห่","provinceId":31},{"id":418,"nameTH":"พระนครศรีอยุธยา","provinceId":31},{"id":419,"nameTH":"ภาชี","provinceId":31},{"id":420,"nameTH":"มหาราช","provinceId":31},{"id":421,"nameTH":"ลาดบัวหลวง","provinceId":31},{"id":422,"nameTH":"วังน้อย","provinceId":31},{"id":423,"nameTH":"อุทัย","provinceId":31},{"id":424,"nameTH":"เสนา","provinceId":31},{"id":425,"nameTH":"จุน","provinceId":32},{"id":426,"nameTH":"ดอกคำใต้","provinceId":32},{"id":427,"nameTH":"ปง","provinceId":32},{"id":428,"nameTH":"ภูกามยาว","provinceId":32},{"id":429,"nameTH":"ภูซาง","provinceId":32},{"id":430,"nameTH":"เชียงคำ","provinceId":32},{"id":431,"nameTH":"เชียงม่วน","provinceId":32},{"id":432,"nameTH":"เมือง","provinceId":32},{"id":433,"nameTH":"แม่ใจ","provinceId":32},{"id":434,"nameTH":"กะปง","provinceId":33},{"id":435,"nameTH":"คุระบุรี","provinceId":33},{"id":436,"nameTH":"ตะกั่วทุ่ง","provinceId":33},{"id":437,"nameTH":"ตะกั่วป่า","provinceId":33},{"id":438,"nameTH":"ทับปุด","provinceId":33},{"id":439,"nameTH":"ท้ายเหมือง","provinceId":33},{"id":440,"nameTH":"เกาะยาว","provinceId":33},{"id":441,"nameTH":"เมือง","provinceId":33},{"id":442,"nameTH":"กงหรา","provinceId":34},{"id":443,"nameTH":"ควนขนุน","provinceId":34},{"id":444,"nameTH":"ตะโหมด","provinceId":34},{"id":445,"nameTH":"บางแก้ว","provinceId":34},{"id":446,"nameTH":"ปากพะยูน","provinceId":34},{"id":447,"nameTH":"ป่าบอน","provinceId":34},{"id":448,"nameTH":"ป่าพะยอม","provinceId":34},{"id":449,"nameTH":"ศรีนครินทร์","provinceId":34},{"id":450,"nameTH":"ศรีบรรพต","provinceId":34},{"id":451,"nameTH":"เขาชัยสน","provinceId":34},{"id":452,"nameTH":"เมือง","provinceId":34},{"id":453,"nameTH":"ดงเจริญ","provinceId":35},{"id":454,"nameTH":"ตะพานหิน","provinceId":35},{"id":455,"nameTH":"ทับคล้อ","provinceId":35},{"id":456,"nameTH":"บางมูลนาก","provinceId":35},{"id":457,"nameTH":"บึงนาราง","provinceId":35},{"id":458,"nameTH":"วชิรบารมี","provinceId":35},{"id":459,"nameTH":"วังทรายพูน","provinceId":35},{"id":460,"nameTH":"สากเหล็ก","provinceId":35},{"id":461,"nameTH":"สามง่าม","provinceId":35},{"id":462,"nameTH":"เมือง","provinceId":35},{"id":463,"nameTH":"โพทะเล","provinceId":35},{"id":464,"nameTH":"โพธิ์ประทับช้าง","provinceId":35},{"id":465,"nameTH":"ชาติตระการ","provinceId":36},{"id":466,"nameTH":"นครไทย","provinceId":36},{"id":467,"nameTH":"บางกระทุ่ม","provinceId":36},{"id":468,"nameTH":"บางระกำ","provinceId":36},{"id":469,"nameTH":"พรหมพิราม","provinceId":36},{"id":470,"nameTH":"วังทอง","provinceId":36},{"id":471,"nameTH":"วัดโบสถ์","provinceId":36},{"id":472,"nameTH":"เนินมะปราง","provinceId":36},{"id":473,"nameTH":"เมือง","provinceId":36},{"id":474,"nameTH":"กะทู้","provinceId":37},{"id":475,"nameTH":"ถลาง","provinceId":37},{"id":476,"nameTH":"เมือง","provinceId":37},{"id":477,"nameTH":"กันทรวิชัย","provinceId":38},{"id":478,"nameTH":"กุดรัง","provinceId":38},{"id":479,"nameTH":"ชื่นชม","provinceId":38},{"id":480,"nameTH":"นาดูน","provinceId":38},{"id":481,"nameTH":"นาเชือก","provinceId":38},{"id":482,"nameTH":"บรบือ","provinceId":38},{"id":483,"nameTH":"พยัคฆภูมิพิสัย","provinceId":38},{"id":484,"nameTH":"ยางสีสุราช","provinceId":38},{"id":485,"nameTH":"วาปีปทุม","provinceId":38},{"id":486,"nameTH":"เชียงยืน","provinceId":38},{"id":487,"nameTH":"เมือง","provinceId":38},{"id":488,"nameTH":"แกดำ","provinceId":38},{"id":489,"nameTH":"โกสุมพิสัย","provinceId":38},{"id":490,"nameTH":"คำชะอี","provinceId":39},{"id":491,"nameTH":"ดงหลวง","provinceId":39},{"id":492,"nameTH":"ดอนตาล","provinceId":39},{"id":493,"nameTH":"นิคมคำสร้อย","provinceId":39},{"id":494,"nameTH":"หนองสูง","provinceId":39},{"id":495,"nameTH":"หว้านใหญ่","provinceId":39},{"id":496,"nameTH":"เมือง","provinceId":39},{"id":497,"nameTH":"กรงปินัง","provinceId":40},{"id":498,"nameTH":"กาบัง","provinceId":40},{"id":499,"nameTH":"ธารโต","provinceId":40},{"id":500,"nameTH":"บันนังสตา","provinceId":40},{"id":501,"nameTH":"ยะหา","provinceId":40},{"id":502,"nameTH":"รามัน","provinceId":40},{"id":503,"nameTH":"เบตง","provinceId":40},{"id":504,"nameTH":"เมือง","provinceId":40},{"id":505,"nameTH":"กุดชุม","provinceId":41},{"id":506,"nameTH":"คำเขื่อนแก้ว","provinceId":41},{"id":507,"nameTH":"ค้อวัง","provinceId":41},{"id":508,"nameTH":"ทรายมูล","provinceId":41},{"id":509,"nameTH":"ป่าติ้ว","provinceId":41},{"id":510,"nameTH":"มหาชนะชัย","provinceId":41},{"id":511,"nameTH":"เมือง","provinceId":41},{"id":512,"nameTH":"เลิงนกทา","provinceId":41},{"id":513,"nameTH":"ไทยเจริญ","provinceId":41},{"id":514,"nameTH":"กระบุรี","provinceId":42},{"id":515,"nameTH":"กะเปอร์","provinceId":42},{"id":516,"nameTH":"ละอุ่น","provinceId":42},{"id":517,"nameTH":"สุขสำราญ","provinceId":42},{"id":518,"nameTH":"เมือง","provinceId":42},{"id":519,"nameTH":"นิคมพัฒนา","provinceId":43},{"id":520,"nameTH":"บ้านค่าย","provinceId":43},{"id":521,"nameTH":"บ้านฉาง","provinceId":43},{"id":522,"nameTH":"ปลวกแดง","provinceId":43},{"id":523,"nameTH":"วังจันทร์","provinceId":43},{"id":524,"nameTH":"เขาชะเมา","provinceId":43},{"id":525,"nameTH":"เมือง","provinceId":43},{"id":526,"nameTH":"แกลง","provinceId":43},{"id":527,"nameTH":"จอมบึง","provinceId":44},{"id":528,"nameTH":"ดำเนินสะดวก","provinceId":44},{"id":529,"nameTH":"บางแพ","provinceId":44},{"id":530,"nameTH":"บ้านคา","provinceId":44},{"id":531,"nameTH":"บ้านโป่ง","provinceId":44},{"id":532,"nameTH":"ปากท่อ","provinceId":44},{"id":533,"nameTH":"วัดเพลง","provinceId":44},{"id":534,"nameTH":"สวนผึ้ง","provinceId":44},{"id":535,"nameTH":"เมือง","provinceId":44},{"id":536,"nameTH":"โพธาราม","provinceId":44},{"id":537,"nameTH":"จตุรพักตรพิมาน","provinceId":45},{"id":538,"nameTH":"จังหาร","provinceId":45},{"id":539,"nameTH":"ทุ่งเขาหลวง","provinceId":45},{"id":540,"nameTH":"ธวัชบุรี","provinceId":45},{"id":541,"nameTH":"ปทุมรัตต์","provinceId":45},{"id":542,"nameTH":"พนมไพร","provinceId":45},{"id":543,"nameTH":"ศรีสมเด็จ","provinceId":45},{"id":544,"nameTH":"สุวรรณภูมิ","provinceId":45},{"id":545,"nameTH":"หนองพอก","provinceId":45},{"id":546,"nameTH":"หนองฮี","provinceId":45},{"id":547,"nameTH":"อาจสามารถ","provinceId":45},{"id":548,"nameTH":"เกษตรวิสัย","provinceId":45},{"id":549,"nameTH":"เชียงขวัญ","provinceId":45},{"id":550,"nameTH":"เมยวดี","provinceId":45},{"id":551,"nameTH":"เมือง","provinceId":45},{"id":552,"nameTH":"เมืองสรวง","provinceId":45},{"id":553,"nameTH":"เสลภูมิ","provinceId":45},{"id":554,"nameTH":"โพธิ์ชัย","provinceId":45},{"id":555,"nameTH":"โพนทราย","provinceId":45},{"id":556,"nameTH":"โพนทอง","provinceId":45},{"id":557,"nameTH":"ชัยบาดาล","provinceId":46},{"id":558,"nameTH":"ท่าวุ้ง","provinceId":46},{"id":559,"nameTH":"ท่าหลวง","provinceId":46},{"id":560,"nameTH":"บ้านหมี่","provinceId":46},{"id":561,"nameTH":"พัฒนานิคม","provinceId":46},{"id":562,"nameTH":"ลำสนธิ","provinceId":46},{"id":563,"nameTH":"สระโบสถ์","provinceId":46},{"id":564,"nameTH":"หนองม่วง","provinceId":46},{"id":565,"nameTH":"เมือง","provinceId":46},{"id":566,"nameTH":"โคกสำโรง","provinceId":46},{"id":567,"nameTH":"โคกเจริญ","provinceId":46},{"id":568,"nameTH":"งาว","provinceId":47},{"id":569,"nameTH":"วังเหนือ","provinceId":47},{"id":570,"nameTH":"สบปราบ","provinceId":47},{"id":571,"nameTH":"ห้างฉัตร","provinceId":47},{"id":572,"nameTH":"เกาะคา","provinceId":47},{"id":573,"nameTH":"เถิน","provinceId":47},{"id":574,"nameTH":"เมือง","provinceId":47},{"id":575,"nameTH":"เมืองปาน","provinceId":47},{"id":576,"nameTH":"เสริมงาม","provinceId":47},{"id":577,"nameTH":"แจ้ห่ม","provinceId":47},{"id":578,"nameTH":"แม่ทะ","provinceId":47},{"id":579,"nameTH":"แม่พริก","provinceId":47},{"id":580,"nameTH":"แม่เมาะ","provinceId":47},{"id":581,"nameTH":"ทุ่งหัวช้าง","provinceId":48},{"id":582,"nameTH":"บ้านธิ","provinceId":48},{"id":583,"nameTH":"บ้านโฮ่ง","provinceId":48},{"id":584,"nameTH":"ป่าซาง","provinceId":48},{"id":585,"nameTH":"ลี้","provinceId":48},{"id":586,"nameTH":"เมือง","provinceId":48},{"id":587,"nameTH":"เวียงหนองล่อง","provinceId":48},{"id":588,"nameTH":"แม่ทา","provinceId":48},{"id":589,"nameTH":"กันทรลักษ์","provinceId":49},{"id":590,"nameTH":"กันทรารมย์","provinceId":49},{"id":591,"nameTH":"ขุขันธ์","provinceId":49},{"id":592,"nameTH":"ขุนหาญ","provinceId":49},{"id":593,"nameTH":"น้ำเกลี้ยง","provinceId":49},{"id":594,"nameTH":"บึงบูรพ์","provinceId":49},{"id":595,"nameTH":"ปรางค์กู่","provinceId":49},{"id":596,"nameTH":"พยุห์","provinceId":49},{"id":597,"nameTH":"ภูสิงห์","provinceId":49},{"id":598,"nameTH":"ยางชุมน้อย","provinceId":49},{"id":599,"nameTH":"ราษีไศล","provinceId":49},{"id":600,"nameTH":"วังหิน","provinceId":49},{"id":601,"nameTH":"ศรีรัตนะ","provinceId":49},{"id":602,"nameTH":"ศิลาลาด","provinceId":49},{"id":603,"nameTH":"ห้วยทับทัน","provinceId":49},{"id":604,"nameTH":"อุทุมพรพิสัย","provinceId":49},{"id":605,"nameTH":"เบญจลักษ์","provinceId":49},{"id":606,"nameTH":"เมือง","provinceId":49},{"id":607,"nameTH":"เมืองจันทร์","provinceId":49},{"id":608,"nameTH":"โนนคูณ","provinceId":49},{"id":609,"nameTH":"โพธิ์ศรีสุวรรณ","provinceId":49},{"id":610,"nameTH":"ไพรบึง","provinceId":49},{"id":611,"nameTH":"กุดบาก","provinceId":50},{"id":612,"nameTH":"กุสุมาลย์","provinceId":50},{"id":613,"nameTH":"คำตากล้า","provinceId":50},{"id":614,"nameTH":"นิคมน้ำอูน","provinceId":50},{"id":615,"nameTH":"บ้านม่วง","provinceId":50},{"id":616,"nameTH":"พรรณานิคม","provinceId":50},{"id":617,"nameTH":"พังโคน","provinceId":50},{"id":618,"nameTH":"ภูพาน","provinceId":50},{"id":619,"nameTH":"วานรนิวาส","provinceId":50},{"id":620,"nameTH":"วาริชภูมิ","provinceId":50},{"id":621,"nameTH":"สว่างแดนดิน","provinceId":50},{"id":622,"nameTH":"ส่องดาว","provinceId":50},{"id":623,"nameTH":"อากาศอำนวย","provinceId":50},{"id":624,"nameTH":"เจริญศิลป์","provinceId":50},{"id":625,"nameTH":"เต่างอย","provinceId":50},{"id":626,"nameTH":"เมือง","provinceId":50},{"id":627,"nameTH":"โคกศรีสุพรรณ","provinceId":50},{"id":628,"nameTH":"โพนนาแก้ว","provinceId":50},{"id":629,"nameTH":"กระแสสินธุ์","provinceId":51},{"id":630,"nameTH":"คลองหอยโข่ง","provinceId":51},{"id":631,"nameTH":"ควนเนียง","provinceId":51},{"id":632,"nameTH":"จะนะ","provinceId":51},{"id":633,"nameTH":"นาทวี","provinceId":51},{"id":634,"nameTH":"นาหม่อม","provinceId":51},{"id":635,"nameTH":"บางกล่ำ","provinceId":51},{"id":636,"nameTH":"ระโนด","provinceId":51},{"id":637,"nameTH":"รัตภูมิ","provinceId":51},{"id":638,"nameTH":"สทิงพระ","provinceId":51},{"id":639,"nameTH":"สะบ้าย้อย","provinceId":51},{"id":640,"nameTH":"สะเดา","provinceId":51},{"id":641,"nameTH":"สิงหนคร","provinceId":51},{"id":642,"nameTH":"หาดใหญ่","provinceId":51},{"id":643,"nameTH":"เทพา","provinceId":51},{"id":644,"nameTH":"เมือง","provinceId":51},{"id":645,"nameTH":"ควนกาหลง","provinceId":52},{"id":646,"nameTH":"ควนโดน","provinceId":52},{"id":647,"nameTH":"ทุ่งหว้า","provinceId":52},{"id":648,"nameTH":"ท่าแพ","provinceId":52},{"id":649,"nameTH":"มะนัง","provinceId":52},{"id":650,"nameTH":"ละงู","provinceId":52},{"id":651,"nameTH":"เมือง","provinceId":52},{"id":652,"nameTH":"บางบ่อ","provinceId":53},{"id":653,"nameTH":"บางพลี","provinceId":53},{"id":654,"nameTH":"บางเสาธง","provinceId":53},{"id":655,"nameTH":"พระประแดง","provinceId":53},{"id":656,"nameTH":"พระสมุทรเจดีย์","provinceId":53},{"id":657,"nameTH":"เมือง","provinceId":53},{"id":658,"nameTH":"บางคนที","provinceId":54},{"id":659,"nameTH":"อัมพวา","provinceId":54},{"id":660,"nameTH":"เมือง","provinceId":54},{"id":661,"nameTH":"กระทุ่มแบน","provinceId":55},{"id":662,"nameTH":"บ้านแพ้ว","provinceId":55},{"id":663,"nameTH":"เมือง","provinceId":55},{"id":664,"nameTH":"ดอนพุด","provinceId":56},{"id":665,"nameTH":"บ้านหมอ","provinceId":56},{"id":666,"nameTH":"พระพุทธบาท","provinceId":56},{"id":667,"nameTH":"มวกเหล็ก","provinceId":56},{"id":668,"nameTH":"วังม่วง","provinceId":56},{"id":669,"nameTH":"วิหารแดง","provinceId":56},{"id":670,"nameTH":"หนองแค","provinceId":56},{"id":671,"nameTH":"หนองแซง","provinceId":56},{"id":672,"nameTH":"หนองโดน","provinceId":56},{"id":673,"nameTH":"เฉลิมพระเกียรติ","provinceId":56},{"id":674,"nameTH":"เมือง","provinceId":56},{"id":675,"nameTH":"เสาไห้","provinceId":56},{"id":676,"nameTH":"แก่งคอย","provinceId":56},{"id":677,"nameTH":"คลองหาด","provinceId":57},{"id":678,"nameTH":"ตาพระยา","provinceId":57},{"id":679,"nameTH":"วังน้ำเย็น","provinceId":57},{"id":680,"nameTH":"วังสมบูรณ์","provinceId":57},{"id":681,"nameTH":"วัฒนานคร","provinceId":57},{"id":682,"nameTH":"อรัญประเทศ","provinceId":57},{"id":683,"nameTH":"เขาฉกรรจ์","provinceId":57},{"id":684,"nameTH":"เมือง","provinceId":57},{"id":685,"nameTH":"โคกสูง","provinceId":57},{"id":686,"nameTH":"ค่ายบางระจัน","provinceId":58},{"id":687,"nameTH":"ท่าช้าง","provinceId":58},{"id":688,"nameTH":"บางระจัน","provinceId":58},{"id":689,"nameTH":"พรหมบุรี","provinceId":58},{"id":690,"nameTH":"อินทร์บุรี","provinceId":58},{"id":691,"nameTH":"เมือง","provinceId":58},{"id":692,"nameTH":"ดอนเจดีย์","provinceId":59},{"id":693,"nameTH":"ด่านช้าง","provinceId":59},{"id":694,"nameTH":"บางปลาม้า","provinceId":59},{"id":695,"nameTH":"ศรีประจันต์","provinceId":59},{"id":696,"nameTH":"สองพี่น้อง","provinceId":59},{"id":697,"nameTH":"สามชุก","provinceId":59},{"id":698,"nameTH":"หนองหญ้าไซ","provinceId":59},{"id":699,"nameTH":"อู่ทอง","provinceId":59},{"id":700,"nameTH":"เดิมบางนางบวช","provinceId":59},{"id":701,"nameTH":"เมือง","provinceId":59},{"id":702,"nameTH":"กาญจนดิษฐ์","provinceId":60},{"id":703,"nameTH":"คีรีรัฐนิคม","provinceId":60},{"id":704,"nameTH":"ชัยบุรี","provinceId":60},{"id":705,"nameTH":"ดอนสัก","provinceId":60},{"id":706,"nameTH":"ท่าฉาง","provinceId":60},{"id":707,"nameTH":"ท่าชนะ","provinceId":60},{"id":708,"nameTH":"บ้านตาขุน","provinceId":60},{"id":709,"nameTH":"บ้านนาสาร","provinceId":60},{"id":710,"nameTH":"บ้านนาเดิม","provinceId":60},{"id":711,"nameTH":"พนม","provinceId":60},{"id":712,"nameTH":"พระแสง","provinceId":60},{"id":713,"nameTH":"พุนพิน","provinceId":60},{"id":714,"nameTH":"วิภาวดี","provinceId":60},{"id":715,"nameTH":"เกาะพะงัน","provinceId":60},{"id":716,"nameTH":"เกาะสมุย","provinceId":60},{"id":717,"nameTH":"เคียนซา","provinceId":60},{"id":718,"nameTH":"เมือง","provinceId":60},{"id":719,"nameTH":"เวียงสระ","provinceId":60},{"id":720,"nameTH":"ไชยา","provinceId":60},{"id":721,"nameTH":"กาบเชิง","provinceId":61},{"id":722,"nameTH":"จอมพระ","provinceId":61},{"id":723,"nameTH":"ชุมพลบุรี","provinceId":61},{"id":724,"nameTH":"ท่าตูม","provinceId":61},{"id":725,"nameTH":"บัวเชด","provinceId":61},{"id":726,"nameTH":"ปราสาท","provinceId":61},{"id":727,"nameTH":"พนมดงรัก","provinceId":61},{"id":728,"nameTH":"รัตนบุรี","provinceId":61},{"id":729,"nameTH":"ลำดวน","provinceId":61},{"id":730,"nameTH":"ศรีณรงค์","provinceId":61},{"id":731,"nameTH":"ศีขรภูมิ","provinceId":61},{"id":732,"nameTH":"สนม","provinceId":61},{"id":733,"nameTH":"สังขะ","provinceId":61},{"id":734,"nameTH":"สำโรงทาบ","provinceId":61},{"id":735,"nameTH":"เขวาสินรินทร์","provinceId":61},{"id":736,"nameTH":"เมือง","provinceId":61},{"id":737,"nameTH":"โนนนารายณ์","provinceId":61},{"id":738,"nameTH":"กงไกรลาศ","provinceId":62},{"id":739,"nameTH":"คีรีมาศ","provinceId":62},{"id":740,"nameTH":"ทุ่งเสลี่ยม","provinceId":62},{"id":741,"nameTH":"บ้านด่านลานหอย","provinceId":62},{"id":742,"nameTH":"ศรีนคร","provinceId":62},{"id":743,"nameTH":"ศรีสัชนาลัย","provinceId":62},{"id":744,"nameTH":"ศรีสำโรง","provinceId":62},{"id":745,"nameTH":"สวรรคโลก","provinceId":62},{"id":746,"nameTH":"เมือง","provinceId":62},{"id":747,"nameTH":"ท่าบ่อ","provinceId":63},{"id":748,"nameTH":"รัตนวาปี","provinceId":63},{"id":749,"nameTH":"ศรีเชียงใหม่","provinceId":63},{"id":750,"nameTH":"สระใคร","provinceId":63},{"id":751,"nameTH":"สังคม","provinceId":63},{"id":752,"nameTH":"เฝ้าไร่","provinceId":63},{"id":753,"nameTH":"เมือง","provinceId":63},{"id":754,"nameTH":"โพธิ์ตาก","provinceId":63},{"id":755,"nameTH":"โพนพิสัย","provinceId":63},{"id":756,"nameTH":"นากลาง","provinceId":64},{"id":757,"nameTH":"นาวัง","provinceId":64},{"id":758,"nameTH":"ศรีบุญเรือง","provinceId":64},{"id":759,"nameTH":"สุวรรณคูหา","provinceId":64},{"id":760,"nameTH":"เมือง","provinceId":64},{"id":761,"nameTH":"โนนสัง","provinceId":64},{"id":762,"nameTH":"ชานุมาน","provinceId":65},{"id":763,"nameTH":"ปทุมราชวงศา","provinceId":65},{"id":764,"nameTH":"พนา","provinceId":65},{"id":765,"nameTH":"ลืออำนาจ","provinceId":65},{"id":766,"nameTH":"หัวตะพาน","provinceId":65},{"id":767,"nameTH":"เมือง","provinceId":65},{"id":768,"nameTH":"เสนางคนิคม","provinceId":65},{"id":769,"nameTH":"กุดจับ","provinceId":66},{"id":770,"nameTH":"กุมภวาปี","provinceId":66},{"id":771,"nameTH":"กู่แก้ว","provinceId":66},{"id":772,"nameTH":"ทุ่งฝน","provinceId":66},{"id":773,"nameTH":"นายูง","provinceId":66},{"id":774,"nameTH":"น้ำโสม","provinceId":66},{"id":775,"nameTH":"บ้านดุง","provinceId":66},{"id":776,"nameTH":"บ้านผือ","provinceId":66},{"id":777,"nameTH":"ประจักษ์ศิลปาคม","provinceId":66},{"id":778,"nameTH":"พิบูลย์รักษ์","provinceId":66},{"id":779,"nameTH":"วังสามหมอ","provinceId":66},{"id":780,"nameTH":"ศรีธาตุ","provinceId":66},{"id":781,"nameTH":"สร้างคอม","provinceId":66},{"id":782,"nameTH":"หนองวัวซอ","provinceId":66},{"id":783,"nameTH":"หนองหาน","provinceId":66},{"id":784,"nameTH":"หนองแสง","provinceId":66},{"id":785,"nameTH":"เพ็ญ","provinceId":66},{"id":786,"nameTH":"เมือง","provinceId":66},{"id":787,"nameTH":"โนนสะอาด","provinceId":66},{"id":788,"nameTH":"ไชยวาน","provinceId":66},{"id":789,"nameTH":"ตรอน","provinceId":67},{"id":790,"nameTH":"ทองแสนขัน","provinceId":67},{"id":791,"nameTH":"ท่าปลา","provinceId":67},{"id":792,"nameTH":"น้ำปาด","provinceId":67},{"id":793,"nameTH":"บ้านโคก","provinceId":67},{"id":794,"nameTH":"พิชัย","provinceId":67},{"id":795,"nameTH":"ฟากท่า","provinceId":67},{"id":796,"nameTH":"ลับแล","provinceId":67},{"id":797,"nameTH":"เมือง","provinceId":67},{"id":798,"nameTH":"ทัพทัน","provinceId":68},{"id":799,"nameTH":"บ้านไร่","provinceId":68},{"id":800,"nameTH":"ลานสัก","provinceId":68},{"id":801,"nameTH":"สว่างอารมณ์","provinceId":68},{"id":802,"nameTH":"หนองขาหย่าง","provinceId":68},{"id":803,"nameTH":"หนองฉาง","provinceId":68},{"id":804,"nameTH":"ห้วยคต","provinceId":68},{"id":805,"nameTH":"เมือง","provinceId":68},{"id":806,"nameTH":"กุดข้าวปุ้น","provinceId":69},{"id":807,"nameTH":"ดอนมดแดง","provinceId":69},{"id":808,"nameTH":"ตระการพืชผล","provinceId":69},{"id":809,"nameTH":"ตาลสุม","provinceId":69},{"id":810,"nameTH":"ทุ่งศรีอุดม","provinceId":69},{"id":811,"nameTH":"นาจะหลวย","provinceId":69},{"id":812,"nameTH":"นาตาล","provinceId":69},{"id":813,"nameTH":"นาเยีย","provinceId":69},{"id":814,"nameTH":"น้ำขุ่น","provinceId":69},{"id":815,"nameTH":"น้ำยืน","provinceId":69},{"id":816,"nameTH":"บุณฑริก","provinceId":69},{"id":817,"nameTH":"พิบูลมังสาหาร","provinceId":69},{"id":818,"nameTH":"ม่วงสามสิบ","provinceId":69},{"id":819,"nameTH":"วารินชำราบ","provinceId":69},{"id":820,"nameTH":"ศรีเมืองใหม่","provinceId":69},{"id":821,"nameTH":"สว่างวีระวงศ์","provinceId":69},{"id":822,"nameTH":"สำโรง","provinceId":69},{"id":823,"nameTH":"สิรินธร","provinceId":69},{"id":824,"nameTH":"เขมราฐ","provinceId":69},{"id":825,"nameTH":"เขื่องใน","provinceId":69},{"id":826,"nameTH":"เดชอุดม","provinceId":69},{"id":827,"nameTH":"เมือง","provinceId":69},{"id":828,"nameTH":"เหล่าเสือโก้ก","provinceId":69},{"id":829,"nameTH":"โขงเจียม","provinceId":69},{"id":830,"nameTH":"โพธิ์ไทร","provinceId":69},{"id":831,"nameTH":"ป่าโมก","provinceId":70},{"id":832,"nameTH":"วิเศษชัยชาญ","provinceId":70},{"id":833,"nameTH":"สามโก้","provinceId":70},{"id":834,"nameTH":"เมือง","provinceId":70},{"id":835,"nameTH":"แสวงหา","provinceId":70},{"id":836,"nameTH":"โพธิ์ทอง","provinceId":70},{"id":837,"nameTH":"ไชโย","provinceId":70},{"id":838,"nameTH":"ขุนตาล","provinceId":71},{"id":839,"nameTH":"ดอยหลวง","provinceId":71},{"id":840,"nameTH":"ป่าแดด","provinceId":71},{"id":841,"nameTH":"พญาเม็งราย","provinceId":71},{"id":842,"nameTH":"พาน","provinceId":71},{"id":843,"nameTH":"เชียงของ","provinceId":71},{"id":844,"nameTH":"เชียงแสน","provinceId":71},{"id":845,"nameTH":"เทิง","provinceId":71},{"id":846,"nameTH":"เมือง","provinceId":71},{"id":847,"nameTH":"เวียงชัย","provinceId":71},{"id":848,"nameTH":"เวียงป่าเป้า","provinceId":71},{"id":849,"nameTH":"เวียงเชียงรุ้ง","provinceId":71},{"id":850,"nameTH":"เวียงแก่น","provinceId":71},{"id":851,"nameTH":"แม่จัน","provinceId":71},{"id":852,"nameTH":"แม่ฟ้าหลวง","provinceId":71},{"id":853,"nameTH":"แม่ลาว","provinceId":71},{"id":854,"nameTH":"แม่สรวย","provinceId":71},{"id":855,"nameTH":"แม่สาย","provinceId":71},{"id":856,"nameTH":"กัลยาณิวัฒนา","provinceId":72},{"id":857,"nameTH":"จอมทอง","provinceId":72},{"id":858,"nameTH":"ดอยสะเก็ด","provinceId":72},{"id":859,"nameTH":"ดอยหล่อ","provinceId":72},{"id":860,"nameTH":"ดอยเต่า","provinceId":72},{"id":861,"nameTH":"ฝาง","provinceId":72},{"id":862,"nameTH":"พร้าว","provinceId":72},{"id":863,"nameTH":"สะเมิง","provinceId":72},{"id":864,"nameTH":"สันกำแพง","provinceId":72},{"id":865,"nameTH":"สันทราย","provinceId":72},{"id":866,"nameTH":"สันป่าตอง","provinceId":72},{"id":867,"nameTH":"สารภี","provinceId":72},{"id":868,"nameTH":"หางดง","provinceId":72},{"id":869,"nameTH":"อมก๋อย","provinceId":72},{"id":870,"nameTH":"ฮอด","provinceId":72},{"id":871,"nameTH":"เชียงดาว","provinceId":72},{"id":872,"nameTH":"เมือง","provinceId":72},{"id":873,"nameTH":"เวียงแหง","provinceId":72},{"id":874,"nameTH":"แม่ริม","provinceId":72},{"id":875,"nameTH":"แม่วาง","provinceId":72},{"id":876,"nameTH":"แม่ออน","provinceId":72},{"id":877,"nameTH":"แม่อาย","provinceId":72},{"id":878,"nameTH":"แม่แจ่ม","provinceId":72},{"id":879,"nameTH":"แม่แตง","provinceId":72},{"id":880,"nameTH":"ไชยปราการ","provinceId":72},{"id":881,"nameTH":"ชะอำ","provinceId":73},{"id":882,"nameTH":"ท่ายาง","provinceId":73},{"id":883,"nameTH":"บ้านลาด","provinceId":73},{"id":884,"nameTH":"บ้านแหลม","provinceId":73},{"id":885,"nameTH":"หนองหญ้าปล้อง","provinceId":73},{"id":886,"nameTH":"เขาย้อย","provinceId":73},{"id":887,"nameTH":"เมือง","provinceId":73},{"id":888,"nameTH":"แก่งกระจาน","provinceId":73},{"id":889,"nameTH":"ชนแดน","provinceId":74},{"id":890,"nameTH":"น้ำหนาว","provinceId":74},{"id":891,"nameTH":"บึงสามพัน","provinceId":74},{"id":892,"nameTH":"วังโป่ง","provinceId":74},{"id":893,"nameTH":"วิเชียรบุรี","provinceId":74},{"id":894,"nameTH":"ศรีเทพ","provinceId":74},{"id":895,"nameTH":"หนองไผ่","provinceId":74},{"id":896,"nameTH":"หล่มสัก","provinceId":74},{"id":897,"nameTH":"หล่มเก่า","provinceId":74},{"id":898,"nameTH":"เขาค้อ","provinceId":74},{"id":899,"nameTH":"เมือง","provinceId":74},{"id":900,"nameTH":"ด่านซ้าย","provinceId":75},{"id":901,"nameTH":"ท่าลี่","provinceId":75},{"id":902,"nameTH":"นาด้วง","provinceId":75},{"id":903,"nameTH":"นาแห้ว","provinceId":75},{"id":904,"nameTH":"ปากชม","provinceId":75},{"id":905,"nameTH":"ผาขาว","provinceId":75},{"id":906,"nameTH":"ภูกระดึง","provinceId":75},{"id":907,"nameTH":"ภูหลวง","provinceId":75},{"id":908,"nameTH":"ภูเรือ","provinceId":75},{"id":909,"nameTH":"วังสะพุง","provinceId":75},{"id":910,"nameTH":"หนองหิน","provinceId":75},{"id":911,"nameTH":"เชียงคาน","provinceId":75},{"id":912,"nameTH":"เมือง","provinceId":75},{"id":913,"nameTH":"เอราวัณ","provinceId":75},{"id":914,"nameTH":"ร้องกวาง","provinceId":76},{"id":915,"nameTH":"ลอง","provinceId":76},{"id":916,"nameTH":"วังชิ้น","provinceId":76},{"id":917,"nameTH":"สอง","provinceId":76},{"id":918,"nameTH":"สูงเม่น","provinceId":76},{"id":919,"nameTH":"หนองม่วงไข่","provinceId":76},{"id":920,"nameTH":"เด่นชัย","provinceId":76},{"id":921,"nameTH":"เมือง","provinceId":76},{"id":922,"nameTH":"ขุนยวม","provinceId":77},{"id":923,"nameTH":"ปางมะผ้า","provinceId":77},{"id":924,"nameTH":"ปาย","provinceId":77},{"id":925,"nameTH":"สบเมย","provinceId":77},{"id":926,"nameTH":"เมือง","provinceId":77},{"id":927,"nameTH":"แม่ลาน้อย","provinceId":77},{"id":928,"nameTH":"แม่สะเรียง","provinceId":77}]